H1 CPF  1  DLR 2021 07 06 10  6872 technosat            
H2  1704205 6203    42829 2021 07 06 00 00 00 2021 07 13 00 00 00    60 1 1  0 0 0
H9
10 0 59404  28800.000000  0       6104752.846        775327.423       3258665.044
10 0 59404  28860.000000  0       5893655.902        655081.324       3648038.562
10 0 59404  28920.000000  0       5656577.139        534025.453       4021871.638
10 0 59404  28980.000000  0       5394513.781        412894.607       4378570.649
10 0 59404  29040.000000  0       5108576.195        292414.859       4716615.421
10 0 59404  29100.000000  0       4799982.885        173299.422       5034565.892
10 0 59404  29160.000000  0       4470054.959         56244.616       5331068.329
10 0 59404  29220.000000  0       4120210.089        -58074.033       5604861.080
10 0 59404  29280.000000  0       3751956.091       -169005.456       5854779.840
10 0 59404  29340.000000  0       3366884.171       -275926.515       6079762.525
10 0 59404  29400.000000  0       2966661.808       -378245.361       6278853.714
10 0 59404  29460.000000  0       2553025.308       -475404.588       6451208.588
10 0 59404  29520.000000  0       2127772.092       -566884.126       6596096.431
10 0 59404  29580.000000  0       1692752.689       -652203.937       6712903.677
10 0 59404  29640.000000  0       1249862.448       -730926.499       6801136.418
10 0 59404  29700.000000  0        801033.069       -802658.977       6860422.315
10 0 59404  29760.000000  0        348224.113       -867055.125       6890512.036
10 0 59404  29820.000000  0       -106585.681       -923816.959       6891280.237
10 0 59404  29880.000000  0       -561407.106       -972696.135       6862725.978
10 0 59404  29940.000000  0      -1014249.254      -1013495.052       6804972.704
10 0 59404  30000.000000  0      -1463128.312      -1046067.635       6718267.664
10 0 59404  30060.000000  0      -1906076.277      -1070319.826       6602980.844
10 0 59404  30120.000000  0      -2341149.619      -1086209.797       6459603.422
10 0 59404  30180.000000  0      -2766437.842      -1093747.854       6288745.810
10 0 59404  30240.000000  0      -3180072.052      -1092996.052       6091135.236
10 0 59404  30300.000000  0      -3580233.370      -1084067.554       5867612.724
10 0 59404  30360.000000  0      -3965161.106      -1067125.722       5619129.599
10 0 59404  30420.000000  0      -4333160.742      -1042382.921       5346743.540
10 0 59404  30480.000000  0      -4682611.644      -1010099.009       5051614.084
10 0 59404  30540.000000  0      -5011974.404       -970579.565       4734997.723
10 0 59404  30600.000000  0      -5319797.891       -924173.884       4398242.544
10 0 59404  30660.000000  0      -5604725.855       -871272.686       4042782.429
10 0 59404  30720.000000  0      -5865503.095       -812305.595       3670130.915
10 0 59404  30780.000000  0      -6100981.191       -747738.410       3281874.723
10 0 59404  30840.000000  0      -6310123.808       -678070.165       2879666.962
10 0 59404  30900.000000  0      -6492011.546       -603829.975       2465219.984
10 0 59404  30960.000000  0      -6645846.220       -525573.704       2040297.868
10 0 59404  31020.000000  0      -6770954.484       -443880.505       1606708.670
10 0 59404  31080.000000  0      -6866790.868       -359349.235       1166296.479
10 0 59404  31140.000000  0      -6932940.189       -272594.753        720933.320
10 0 59404  31200.000000  0      -6969119.320       -184244.123        272510.934
10 0 59404  31260.000000  0      -6975178.345        -94932.756       -177067.506
10 0 59404  31320.000000  0      -6951101.043         -5300.492       -625895.743
10 0 59404  31380.000000  0      -6897004.683         84012.309      -1072072.766
10 0 59404  31440.000000  0      -6813139.156        172368.652      -1513711.010
10 0 59404  31500.000000  0      -6699885.568        259138.757      -1948944.404
10 0 59404  31560.000000  0      -6557754.315        343703.863      -2375936.359
10 0 59404  31620.000000  0      -6387382.479        425459.954      -2792887.715
10 0 59404  31680.000000  0      -6189530.513        503821.398      -3198044.408
10 0 59404  31740.000000  0      -5965078.358        578224.460      -3589704.785
10 0 59404  31800.000000  0      -5715021.131        648130.666      -3966226.597
10 0 59404  31860.000000  0      -5440464.333        713029.995      -4326033.730
10 0 59404  31920.000000  0      -5142618.559        772443.906      -4667622.604
10 0 59404  31980.000000  0      -4822793.774        825928.147      -4989568.157
10 0 59404  32040.000000  0      -4482393.245        873075.383      -5290529.436
10 0 59404  32100.000000  0      -4122907.140        913517.599      -5569254.823
10 0 59404  32160.000000  0      -3745905.803        946928.259      -5824586.870
10 0 59404  32220.000000  0      -3353032.718        973024.217      -6055466.694
10 0 59404  32280.000000  0      -2945997.271        991567.384      -6260937.887
10 0 59404  32340.000000  0      -2526567.392       1002366.182      -6440150.096
10 0 59404  32400.000000  0      -2096561.886       1005276.771      -6592362.245
10 0 59404  32460.000000  0      -1657842.600       1000204.009      -6716945.192
10 0 59404  32520.000000  0      -1212306.561        987102.118      -6813383.949
10 0 59404  32580.000000  0       -761878.011        965975.111      -6881279.539
10 0 59404  32640.000000  0       -308500.393        936876.961      -6920350.409
10 0 59404  32700.000000  0        145871.659        899911.536      -6930433.473
10 0 59404  32760.000000  0        599280.399        855232.234      -6911484.872
10 0 59404  32820.000000  0       1049773.210        803041.375      -6863580.272
10 0 59404  32880.000000  0       1495410.814        743589.341      -6786914.569
10 0 59404  32940.000000  0       1934275.307        677173.447      -6681801.190
10 0 59404  33000.000000  0       2364478.160        604136.562      -6548671.053
10 0 59404  33060.000000  0       2784168.216        524865.529      -6388071.069
10 0 59404  33120.000000  0       3191539.508        439789.304      -6200662.119
10 0 59404  33180.000000  0       3584838.862        349376.811      -5987216.702
10 0 59404  33240.000000  0       3962373.404        254134.585      -5748616.154
10 0 59404  33300.000000  0       4322517.825        154604.227      -5485847.428
10 0 59404  33360.000000  0       4663721.507         51359.646      -5199999.527
10 0 59404  33420.000000  0       4984515.449        -54995.939      -4892259.390
10 0 59404  33480.000000  0       5283518.805       -163833.197      -4563907.316
10 0 59404  33540.000000  0       5559445.093       -274500.055      -4216312.020
10 0 59404  33600.000000  0       5811108.061       -386325.224      -3850925.264
10 0 59404  33660.000000  0       6037427.150       -498621.890      -3469276.113
10 0 59404  33720.000000  0       6237432.564       -610691.560      -3072964.821
10 0 59404  33780.000000  0       6410269.899       -721828.016      -2663656.306
10 0 59404  33840.000000  0       6555204.257       -831321.342      -2243073.259
10 0 59404  33900.000000  0       6671623.809       -938462.016      -1812988.936
10 0 59404  33960.000000  0       6759042.812      -1042545.051      -1375219.680
10 0 59404  34020.000000  0       6817104.039      -1142874.160       -931617.180
10 0 59404  34080.000000  0       6845580.599      -1238765.905       -484060.538
10 0 59404  34140.000000  0       6844377.186      -1329553.830        -34448.158
10 0 59404  34200.000000  0       6813530.700      -1414592.533        415310.579
10 0 59404  34260.000000  0       6753210.113      -1493261.643        863303.722
10 0 59404  34320.000000  0       6663715.721      -1564969.705       1307625.090
10 0 59404  34380.000000  0       6545477.852      -1629157.959       1746382.690
10 0 59404  34440.000000  0       6399054.851      -1685303.908       2177707.187
10 0 59404  34500.000000  0       6225130.354      -1732924.657       2599760.179
10 0 59404  34560.000000  0       6024510.007      -1771580.089       3010742.295
10 0 59404  34620.000000  0       5798117.598      -1800875.857       3408901.145
10 0 59404  34680.000000  0       5546990.578      -1820466.091       3792539.014
10 0 59404  34740.000000  0       5272275.076      -1830055.857       4160020.292
10 0 59404  34800.000000  0       4975220.403      -1829403.318       4509778.581
10 0 59404  34860.000000  0       4657173.125      -1818321.586       4840323.474
10 0 59404  34920.000000  0       4319570.727      -1796680.280       5150247.013
10 0 59404  34980.000000  0       3963934.815      -1764406.829       5438229.795
10 0 59404  35040.000000  0       3591863.910      -1721487.435       5703046.614
10 0 59404  35100.000000  0       3205025.919      -1667967.715       5943571.574
10 0 59404  35160.000000  0       2805150.435      -1603953.017       6158782.758
10 0 59404  35220.000000  0       2394020.808      -1529608.441       6347766.510
10 0 59404  35280.000000  0       1973465.945      -1445158.563       6509721.224
10 0 59404  35340.000000  0       1545351.976      -1350886.805       6643960.640
10 0 59404  35400.000000  0       1111573.765      -1247134.470       6749916.648
10 0 59404  35460.000000  0        674046.367      -1134299.476       6827141.522
10 0 59404  35520.000000  0        234696.472      -1012834.788       6875309.696
10 0 59404  35580.000000  0       -204546.183       -883246.545       6894219.003
10 0 59404  35640.000000  0       -641757.319       -746091.945       6883791.431
10 0 59404  35700.000000  0      -1075026.613       -601976.815       6844073.447
10 0 59404  35760.000000  0      -1502466.122       -451552.889       6775235.736
10 0 59404  35820.000000  0      -1922218.531       -295514.837       6677572.461
10 0 59404  35880.000000  0      -2332465.283       -134597.050       6551500.079
10 0 59404  35940.000000  0      -2731434.558         30429.833       6397555.640
99
